EARTHCARE               
1 59908U 24101A   24225.78773946  .00048592  00000+0  69202-3 0  9994
2 59908  96.9850 352.2169 0002655 240.5161 119.5830 15.56192250 11785
